[{"OBJECT_NAME":"STARLINK-3609","OBJECT_ID":"2022-017AS","EPOCH":"2026-03-09T21:20:51.749376","MEAN_MOTION":15.08838625,"ECCENTRICITY":0.00013399,"INCLINATION":53.2191,"RA_OF_ASC_NODE":338.2216,"ARG_OF_PERICENTER":105.4899,"MEAN_ANOMALY":254.6241,"EPHEMERIS_TYPE":0,"CLASSIFICATION_TYPE":"U","NORAD_CAT_ID":51808,"ELEMENT_SET_NO":999,"REV_AT_EPOCH":22399,"BSTAR":2.2737415e-5,"MEAN_MOTION_DOT":7.4e-7,"MEAN_MOTION_DDOT":0},{"OBJECT_NAME":"CZ-4B DEB","OBJECT_ID":"2004-035J","EPOCH":"2026-03-07T20:16:16.859712","MEAN_MOTION":15.09572175,"ECCENTRICITY":0.00105031,"INCLINATION":97.5432,"RA_OF_ASC_NODE":82.067,"ARG_OF_PERICENTER":356.2804,"MEAN_ANOMALY":3.8346,"EPHEMERIS_TYPE":0,"CLASSIFICATION_TYPE":"U","NORAD_CAT_ID":29042,"ELEMENT_SET_NO":999,"REV_AT_EPOCH":69625,"BSTAR":0.00031812935,"MEAN_MOTION_DOT":5.052e-5,"MEAN_MOTION_DDOT":0}]
